[{"OBJECT_NAME":"AETHER-9","OBJECT_ID":"2026-004T","EPOCH":"2026-03-09T23:31:56.232480","MEAN_MOTION":14.87919538,"ECCENTRICITY":0.00064611,"INCLINATION":97.8002,"RA_OF_ASC_NODE":69.182,"ARG_OF_PERICENTER":98.1292,"MEAN_ANOMALY":262.0657,"EPHEMERIS_TYPE":0,"CLASSIFICATION_TYPE":"U","NORAD_CAT_ID":67380,"ELEMENT_SET_NO":999,"REV_AT_EPOCH":853,"BSTAR":0.00014996524,"MEAN_MOTION_DOT":1.32e-5,"MEAN_MOTION_DDOT":0},{"OBJECT_NAME":"SL-14 R\/B","OBJECT_ID":"1987-088B","EPOCH":"2026-03-09T23:26:32.466624","MEAN_MOTION":14.85330836,"ECCENTRICITY":0.00190822,"INCLINATION":82.5078,"RA_OF_ASC_NODE":66.924,"ARG_OF_PERICENTER":14.7989,"MEAN_ANOMALY":345.3781,"EPHEMERIS_TYPE":0,"CLASSIFICATION_TYPE":"U","NORAD_CAT_ID":18422,"ELEMENT_SET_NO":999,"REV_AT_EPOCH":5334,"BSTAR":7.4571739e-5,"MEAN_MOTION_DOT":6.67e-6,"MEAN_MOTION_DDOT":0}]
